{"type": "FeatureCollection", "features": [ {"type": "Feature", "properties": {"norad_id": 33779, "name": "COSMOS 2251 DEB", "group": "cosmos-2251-debris", "lat": -62.620950846882934, "lon": 19.548694463290964, "alt_km": 658.3352456236908, "timestamp": "2025-12-15T04:01:20.844415+00:00", "meta": {"OBJECT_NAME": "COSMOS 2251 DEB", "OBJECT_ID": "1993-036U", "EPOCH": "2025-12-14T06:29:17.904768", "MEAN_MOTION": 14.70499138, "ECCENTRICITY": 0.00168568, "INCLINATION": 74.0447, "RA_OF_ASC_NODE": 167.7547, "ARG_OF_PERICENTER": 201.0666, "MEAN_ANOMALY": 338.2425, "EPHEMERIS_TYPE": 0, "CLASSIFICATION_TYPE": "U", "NORAD_CAT_ID": 33779, "ELEMENT_SET_NO": 999, "REV_AT_EPOCH": 88550, "BSTAR": 0.0021470979, "MEAN_MOTION_DOT": 0.00013046, "MEAN_MOTION_DDOT": 0}, "tle": {"line1": "1 33779U 93036U   25348.27034612  .00013046  00000+0  21471-2 0  9997", "line2": "2 33779  74.0447 167.7547 0016856 201.0666 338.2425 14.70499138885500"}}, "geometry": {"type": "Point", "coordinates": [19.548694463290964, -62.620950846882934]}}, {"type": "Feature", "properties": {"norad_id": 33782, "name": "COSMOS 2251 DEB", "group": "cosmos-2251-debris", "lat": 67.55955738641906, "lon": 49.17111834085809, "alt_km": 759.3154965824388, "timestamp": "2025-12-15T04:01:20.844425+00:00", "meta": {"OBJECT_NAME": "COSMOS 2251 DEB", "OBJECT_ID": "1993-036X", "EPOCH": "2025-12-14T06:27:25.818048", "MEAN_MOTION": 14.40454023, "ECCENTRICITY": 0.00208291, "INCLINATION": 74.0335, "RA_OF_ASC_NODE": 274.718, "ARG_OF_PERICENTER": 339.206, "MEAN_ANOMALY": 148.8536, "EPHEMERIS_TYPE": 0, "CLASSIFICATION_TYPE": "U", "NORAD_CAT_ID": 33782, "ELEMENT_SET_NO": 999, "REV_AT_EPOCH": 88148, "BSTAR": 0.00053851103, "MEAN_MOTION_DOT": 1.69e-05, "MEAN_MOTION_DDOT": 0}, "tle": {"line1": "1 33782U 93036X   25348.26904882  .00001690  00000+0  53851-3 0  9995", "line2": "2 33782  74.0335 274.7180 0020829 339.2060 148.8536 14.40454023881481"}}, "geometry": {"type": "Point", "coordinates": [49.17111834085809, 67.55955738641906]}}, {"type": "Feature", "properties": {"norad_id": 33785, "name": "COSMOS 2251 DEB", "group": "cosmos-2251-debris", "lat": -38.81612847775924, "lon": -111.36628274482737, "alt_km": 676.2277572914745, "timestamp": "2025-12-15T04:01:20.844435+00:00", "meta": {"OBJECT_NAME": "COSMOS 2251 DEB", "OBJECT_ID": "1993-036AA", "EPOCH": "2025-12-14T04:17:43.587744", "MEAN_MOTION": 14.70536388, "ECCENTRICITY": 0.00224396, "INCLINATION": 73.8674, "RA_OF_ASC_NODE": 57.1059, "ARG_OF_PERICENTER": 356.2389, "MEAN_ANOMALY": 32.9748, "EPHEMERIS_TYPE": 0, "CLASSIFICATION_TYPE": "U", "NORAD_CAT_ID": 33785, "ELEMENT_SET_NO": 999, "REV_AT_EPOCH": 88528, "BSTAR": 0.0019741349, "MEAN_MOTION_DOT": 0.0001202, "MEAN_MOTION_DDOT": 0}, "tle": {"line1": "1 33785U 93036AA  25348.17897671  .00012020  00000+0  19741-2 0  9993", "line2": "2 33785  73.8674  57.1059 0022439 356.2389  32.9748 14.70536388885285"}}, "geometry": {"type": "Point", "coordinates": [-111.36628274482737, -38.81612847775924]}}, {"type": "Feature", "properties": {"norad_id": 33789, "name": "COSMOS 2251 DEB", "group": "cosmos-2251-debris", "lat": 41.65833003138158, "lon": 98.01138599147401, "alt_km": 1086.8591099162404, "timestamp": "2025-12-15T04:01:20.844446+00:00", "meta": {"OBJECT_NAME": "COSMOS 2251 DEB", "OBJECT_ID": "1993-036AE", "EPOCH": "2025-12-14T07:23:07.549728", "MEAN_MOTION": 13.88800109, "ECCENTRICITY": 0.02401383, "INCLINATION": 74.0645, "RA_OF_ASC_NODE": 84.7451, "ARG_OF_PERICENTER": 200.0301, "MEAN_ANOMALY": 227.5277, "EPHEMERIS_TYPE": 0, "CLASSIFICATION_TYPE": "U", "NORAD_CAT_ID": 33789, "ELEMENT_SET_NO": 999, "REV_AT_EPOCH": 85117, "BSTAR": 0.00096406721, "MEAN_MOTION_DOT": 1.442e-05, "MEAN_MOTION_DDOT": 0}, "tle": {"line1": "1 33789U 93036AE  25348.30772627  .00001442  00000+0  96407-3 0  9996", "line2": "2 33789  74.0645  84.7451 0240138 200.0301 227.5277 13.88800109851173"}}, "geometry": {"type": "Point", "coordinates": [98.01138599147401, 41.65833003138158]}}, {"type": "Feature", "properties": {"norad_id": 33791, "name": "COSMOS 2251 DEB", "group": "cosmos-2251-debris", "lat": 31.766326260570775, "lon": 43.22583894135593, "alt_km": 766.7833482419028, "timestamp": "2025-12-15T04:01:20.844456+00:00", "meta": {"OBJECT_NAME": "COSMOS 2251 DEB", "OBJECT_ID": "1993-036AG", "EPOCH": "2025-12-14T08:17:28.474080", "MEAN_MOTION": 14.43134975, "ECCENTRICITY": 0.00304659, "INCLINATION": 74.1758, "RA_OF_ASC_NODE": 34.6245, "ARG_OF_PERICENTER": 231.5831, "MEAN_ANOMALY": 212.1039, "EPHEMERIS_TYPE": 0, "CLASSIFICATION_TYPE": "U", "NORAD_CAT_ID": 33791, "ELEMENT_SET_NO": 999, "REV_AT_EPOCH": 88075, "BSTAR": 0.00089225931, "MEAN_MOTION_DOT": 2.988e-05, "MEAN_MOTION_DDOT": 0}, "tle": {"line1": "1 33791U 93036AG  25348.34546845  .00002988  00000+0  89226-3 0  9991", "line2": "2 33791  74.1758  34.6245 0030465 231.5831 212.1039 14.43134975880759"}}, "geometry": {"type": "Point", "coordinates": [43.22583894135593, 31.766326260570775]}}, {"type": "Feature", "properties": {"norad_id": 33792, "name": "COSMOS 2251 DEB", "group": "cosmos-2251-debris", "lat": -49.839105724418864, "lon": -38.5439057114812, "alt_km": 1126.784307617544, "timestamp": "2025-12-15T04:01:20.844467+00:00", "meta": {"OBJECT_NAME": "COSMOS 2251 DEB", "OBJECT_ID": "1993-036AH", "EPOCH": "2025-12-14T07:22:34.220064", "MEAN_MOTION": 13.4582534, "ECCENTRICITY": 0.04271319, "INCLINATION": 73.901, "RA_OF_ASC_NODE": 342.8408, "ARG_OF_PERICENTER": 47.2026, "MEAN_ANOMALY": 58.6145, "EPHEMERIS_TYPE": 0, "CLASSIFICATION_TYPE": "U", "NORAD_CAT_ID": 33792, "ELEMENT_SET_NO": 999, "REV_AT_EPOCH": 82463, "BSTAR": 0.00104042, "MEAN_MOTION_DOT": 1.058e-05, "MEAN_MOTION_DDOT": 0}, "tle": {"line1": "1 33792U 93036AH  25348.30734051  .00001058  00000+0  10404-2 0  9994", "line2": "2 33792  73.9010 342.8408 0427131  47.2026  58.6145 13.45825340824631"}}, "geometry": {"type": "Point", "coordinates": [-38.5439057114812, -49.839105724418864]}}, {"type": "Feature", "properties": {"norad_id": 33793, "name": "COSMOS 2251 DEB", "group": "cosmos-2251-debris", "lat": 35.983402678606694, "lon": -46.5352333191196, "alt_km": 846.5618949157606, "timestamp": "2025-12-15T04:01:20.844488+00:00", "meta": {"OBJECT_NAME": "COSMOS 2251 DEB", "OBJECT_ID": "1993-036AJ", "EPOCH": "2025-12-14T04:38:48.507072", "MEAN_MOTION": 14.27729041, "ECCENTRICITY": 0.00785732, "INCLINATION": 73.9806, "RA_OF_ASC_NODE": 147.275, "ARG_OF_PERICENTER": 297.0774, "MEAN_ANOMALY": 241.4341, "EPHEMERIS_TYPE": 0, "CLASSIFICATION_TYPE": "U", "NORAD_CAT_ID": 33793, "ELEMENT_SET_NO": 999, "REV_AT_EPOCH": 87227, "BSTAR": 0.00083353264, "MEAN_MOTION_DOT": 2.099e-05, "MEAN_MOTION_DDOT": 0}, "tle": {"line1": "1 33793U 93036AJ  25348.19361698  .00002099  00000+0  83353-3 0  9995", "line2": "2 33793  73.9806 147.2750 0078573 297.0774 241.4341 14.27729041872274"}}, "geometry": {"type": "Point", "coordinates": [-46.5352333191196, 35.983402678606694]}}, {"type": "Feature", "properties": {"norad_id": 33795, "name": "COSMOS 2251 DEB", "group": "cosmos-2251-debris", "lat": 45.79613757478413, "lon": 88.88162846835593, "alt_km": 551.0743759555335, "timestamp": "2025-12-15T04:01:20.844511+00:00", "meta": {"OBJECT_NAME": "COSMOS 2251 DEB", "OBJECT_ID": "1993-036AL", "EPOCH": "2025-12-14T07:21:50.468832", "MEAN_MOTION": 15.05593446, "ECCENTRICITY": 0.00313218, "INCLINATION": 74.032, "RA_OF_ASC_NODE": 73.5239, "ARG_OF_PERICENTER": 155.9339, "MEAN_ANOMALY": 269.167, "EPHEMERIS_TYPE": 0, "CLASSIFICATION_TYPE": "U", "NORAD_CAT_ID": 33795, "ELEMENT_SET_NO": 999, "REV_AT_EPOCH": 90045, "BSTAR": 0.0013264056, "MEAN_MOTION_DOT": 0.0001935, "MEAN_MOTION_DDOT": 0}, "tle": {"line1": "1 33795U 93036AL  25348.30683413  .00019350  00000+0  13264-2 0  9993", "line2": "2 33795  74.0320  73.5239 0031321 155.9339 269.1670 15.05593446900450"}}, "geometry": {"type": "Point", "coordinates": [88.88162846835593, 45.79613757478413]}}, {"type": "Feature", "properties": {"norad_id": 33797, "name": "COSMOS 2251 DEB", "group": "cosmos-2251-debris", "lat": 7.519383867092187, "lon": -151.81749413203772, "alt_km": 676.6127908417902, "timestamp": "2025-12-15T04:01:20.844531+00:00", "meta": {"OBJECT_NAME": "COSMOS 2251 DEB", "OBJECT_ID": "1993-036AN", "EPOCH": "2025-12-14T04:26:28.707936", "MEAN_MOTION": 14.57855332, "ECCENTRICITY": 0.00606144, "INCLINATION": 74.0481, "RA_OF_ASC_NODE": 32.2126, "ARG_OF_PERICENTER": 119.6747, "MEAN_ANOMALY": 297.2491, "EPHEMERIS_TYPE": 0, "CLASSIFICATION_TYPE": "U", "NORAD_CAT_ID": 33797, "ELEMENT_SET_NO": 999, "REV_AT_EPOCH": 89006, "BSTAR": 0.00048686907, "MEAN_MOTION_DOT": 2.257e-05, "MEAN_MOTION_DDOT": 0}, "tle": {"line1": "1 33797U 93036AN  25348.18505449  .00002257  00000+0  48687-3 0  9999", "line2": "2 33797  74.0481  32.2126 0060614 119.6747 297.2491 14.57855332890063"}}, "geometry": {"type": "Point", "coordinates": [-151.81749413203772, 7.519383867092187]}}, {"type": "Feature", "properties": {"norad_id": 33798, "name": "COSMOS 2251 DEB", "group": "cosmos-2251-debris", "lat": -59.855685765365, "lon": 101.83366968490752, "alt_km": 702.1977620988928, "timestamp": "2025-12-15T04:01:20.844545+00:00", "meta": {"OBJECT_NAME": "COSMOS 2251 DEB", "OBJECT_ID": "1993-036AP", "EPOCH": "2025-12-14T04:13:25.861728", "MEAN_MOTION": 14.44616488, "ECCENTRICITY": 0.00924803, "INCLINATION": 74.0283, "RA_OF_ASC_NODE": 133.23, "ARG_OF_PERICENTER": 254.2936, "MEAN_ANOMALY": 286.044, "EPHEMERIS_TYPE": 0, "CLASSIFICATION_TYPE": "U", "NORAD_CAT_ID": 33798, "ELEMENT_SET_NO": 999, "REV_AT_EPOCH": 88614, "BSTAR": 0.00023368728, "MEAN_MOTION_DOT": 8.23e-06, "MEAN_MOTION_DDOT": 0}, "tle": {"line1": "1 33798U 93036AP  25348.17599377  .00000823  00000+0  23369-3 0  9999", "line2": "2 33798  74.0283 133.2300 0092480 254.2936 286.0440 14.44616488886149"}}, "geometry": {"type": "Point", "coordinates": [101.83366968490752, -59.855685765365]}}]}